IDEFIX & ARIANE 42P R/B 
1 27422U 02021B   26040.80736385  .00000354  00000+0  15106-3 0  9991
2 27422  98.5841 339.7521 0010658 270.5320  89.4642 14.31005896240032
AQUA                    
1 27424U 02022A   26041.16985248  .00001215  00000+0  25264-3 0  9991
2 27424  98.4124   8.0447 0001464  52.4189   4.7233 14.61907867264714
CZ-4B R/B               
1 27432U 02024C   26040.99268076  .00000044  00000+0  45155-4 0  9996
2 27432  98.8902  94.5307 0051148 101.5905 325.8929 14.14542502225324
MIDORI II (ADEOS-II)    
1 27597U 02056A   26040.87159201  .00000387  00000+0  16983-3 0  9995
2 27597  98.7719 359.1663 0002159  81.7844 278.3582 14.29263883206329
H-2A R/B                
1 27601U 02056E   26040.92980177  .00000369  00000+0  14425-3 0  9990
2 27601  98.3150   2.3610 0069074 243.9681 166.1381 14.33740968210133
CZ-4B R/B               
1 28059U 03049C   26040.94495741  .00000568  00000+0  14187-3 0  9997
2 28059  98.6849  34.7682 0047401 317.4883  42.2646 14.54989566182563
CZ-2C R/B               
1 28222U 04012C   26041.14096214  .00049343  00000+0  57539-3 0  9997
2 28222  97.7303 103.8855 0015794  55.3232 304.9510 15.61359870199975
SL-16 R/B               
1 28353U 04021B   26041.09124177  .00000172  00000+0  11444-3 0  9998
2 28353  70.9996 290.4132 0002994  78.7281 281.4178 14.14590483118933
CZ-4B R/B               
1 28415U 04035C   26041.02625892  .00008694  00000+0  31028-3 0  9992
2 28415  97.3548  75.6058 0034078  68.0986 292.3871 15.28548787175682
CZ-2C R/B               
1 28480U 04046B   26040.78853388  .00000159  00000+0  74942-4 0  9992
2 28480  98.1994 317.5054 0138338 237.1651 121.6149 14.26982356104522
ARIANE 5 R/B            
1 28499U 04049H   26041.01111521  .00001098  00000+0  12696-3 0  9998
2 28499  98.2583 208.4414 0085493  80.9854 280.1024 14.85209406141681
CZ-2D R/B               
1 28738U 05024B   26040.97832626  .00038720  00000+0  52164-3 0  9994
2 28738  97.3622  55.1623 0007512 113.6097 246.5948 15.57712382135461
